NORAD_CAT_ID,OBJECT_NAME,OBJECT_TYPE,EPOCH,MEAN_MOTION,ECCENTRICITY,INCLINATION,RA_OF_ASC_NODE,ARG_OF_PERICENTER,MEAN_ANOMALY,BSTAR,MEAN_MOTION_DOT,MEAN_MOTION_DDOT,TLE_LINE0,TLE_LINE1,TLE_LINE2,SEMIMAJOR_AXIS,PERIOD,APOGEE,PERIGEE,DECAYED
53419.0,STARLINK-4476,PAYLOAD,2023-10-28 23:21:21,15.08843616,0.000152,53.2187,27.0075,82.7376,277.3789,3.636e-05,2.91e-06,0.0,0 STARLINK-4476,1 53419U 22097AH  23301.97317053  .00000291  00000-0  36360-4 0  9990,2 53419  53.2187  27.0075 0001520  82.7376 277.3789 15.08843616 67921,6917.869,95.437,540.786,538.683,0.0
53419.0,STARLINK-4476,PAYLOAD,2023-10-29 12:04:25,15.08866004,0.0001377,53.2193,24.6285,88.7414,271.3736,0.00011913,1.61e-05,0.0,0 STARLINK-4476,1 53419U 22097AH  23302.50307130  .00001610  00000-0  11913-3 0  9997,2 53419  53.2193  24.6285 0001377  88.7414 271.3736 15.08866004 68005,6917.801,95.436,540.618,538.713,0.0
53419.0,STARLINK-4476,PAYLOAD,2023-10-29 15:15:10,15.08875155,0.0001392,53.2184,24.0331,89.4903,270.6248,0.00012747,1.743e-05,0.0,0 STARLINK-4476,1 53419U 22097AH  23302.63554299  .00001743  00000-0  12747-3 0  9994,2 53419  53.2184  24.0331 0001392  89.4903 270.6248 15.08875155 68028,6917.773,95.435,540.601,538.675,0.0
53419.0,STARLINK-4476,PAYLOAD,2023-10-29 23:12:08,15.0884516,0.0001529,53.2205,22.5472,94.8367,265.28,-7.7973e-05,-1.529e-05,0.0,0 STARLINK-4476,1 53419U 22097AH  23302.96676581 -.00001529  00000-0 -77973-4 0  9996,2 53419  53.2205  22.5472 0001529  94.8367 265.2800 15.08845160 68079,6917.865,95.437,540.787,538.672,0.0
53419.0,STARLINK-4476,PAYLOAD,2023-10-30 11:55:15,15.08824629,0.0001587,53.2191,20.1681,99.7092,260.4079,4.543e-05,4.35e-06,0.0,0 STARLINK-4476,1 53419U 22097AH  23303.49670140  .00000435  00000-0  45430-4 0  9996,2 53419  53.2191  20.1681 0001587  99.7092 260.4079 15.08824629 68153,6917.927,95.439,540.89,538.694,0.0
53419.0,STARLINK-4476,PAYLOAD,2023-10-31 10:10:38,15.08839897,0.0001683,53.2183,16.005,88.8292,271.2893,-7.359e-05,-1.459e-05,0.0,0 STARLINK-4476,1 53419U 22097AH  23304.42405935 -.00001459  00000-0 -73590-4 0  9995,2 53419  53.2183  16.0050 0001683  88.8292 271.2893 15.08839897 68298,6917.881,95.438,540.91,538.581,0.0
53419.0,STARLINK-4476,PAYLOAD,2023-10-31 21:18:19,15.08848501,0.0001416,53.2205,13.9229,79.0552,281.06,-9.7884e-05,-1.846e-05,0.0,0 STARLINK-4476,1 53419U 22097AH  23304.88773072 -.00001846  00000-0 -97884-4 0  9997,2 53419  53.2205  13.9229 0001416  79.0552 281.0600 15.08848501 68828,6917.854,95.437,540.699,538.74,0.0
53419.0,STARLINK-4476,PAYLOAD,2023-11-01 11:36:47,15.0884629,0.0001436,53.2197,11.2467,93.4067,266.7089,0.00036554,5.535e-05,0.0,0 STARLINK-4476,1 53419U 22097AH  23305.48388669  .00005535  00000-0  36554-3 0  9991,2 53419  53.2197  11.2467 0001436  93.4067 266.7089 15.08846290 68459,6917.861,95.437,540.72,538.733,0.0
53419.0,STARLINK-4476,PAYLOAD,2023-11-01 21:09:08,15.08832707,0.0001687,53.2192,9.4619,84.121,275.9975,0.00010453,1.376e-05,0.0,0 STARLINK-4476,1 53419U 22097AH  23305.88134379  .00001376  00000-0  10453-3 0  9991,2 53419  53.2192   9.4619 0001687  84.1210 275.9975 15.08832707 68518,6917.903,95.438,540.935,538.601,0.0
53419.0,STARLINK-4476,PAYLOAD,2023-11-02 11:27:35,15.08850041,0.0001519,53.2192,6.7867,93.8689,266.2477,0.0001753,2.504e-05,0.0,0 STARLINK-4476,1 53419U 22097AH  23306.47749253  .00002504  00000-0  17530-3 0  9997,2 53419  53.2192   6.7867 0001519  93.8689 266.2477 15.08850041 68605,6917.85,95.437,540.766,538.664,0.0
53419.0,STARLINK-4476,PAYLOAD,2023-11-03 11:18:22,15.08844289,0.000132,53.218,2.3287,95.8534,264.2609,7.2986e-05,8.74e-06,0.0,0 STARLINK-4476,1 53419U 22097AH  23307.47109900  .00000874  00000-0  72986-4 0  9992,2 53419  53.2180   2.3287 0001320  95.8534 264.2609 15.08844289 68759,6917.867,95.437,540.645,538.819,0.0
53419.0,STARLINK-4476,PAYLOAD,2023-11-03 12:53:44,15.08878626,0.0001533,53.2177,2.0305,102.0784,258.038,-0.0003709,-6.192e-05,0.0,0 STARLINK-4476,1 53419U 22097AH  23307.53732435 -.00006192  00000-0 -37090-3 0  9991,2 53419  53.2177   2.0305 0001533 102.0784 258.0380 15.08878626 69229,6917.762,95.435,540.688,538.567,0.0
53419.0,STARLINK-4476,PAYLOAD,2023-11-03 20:50:41,15.0884653,0.0001445,53.2184,0.5399,85.3078,274.8079,-8.2603e-05,-1.603e-05,0.0,0 STARLINK-4476,1 53419U 22097AH  23307.86853873 -.00001603  00000-0 -82603-4 0  9990,2 53419  53.2184   0.5399 0001445  85.3078 274.8079 15.08846530 69279,6917.86,95.437,540.725,538.726,0.0
53419.0,STARLINK-4476,PAYLOAD,2023-11-04 11:09:09,15.08851788,0.0001388,53.2184,357.8685,93.948,266.1671,0.00014169,1.968e-05,0.0,0 STARLINK-4476,1 53419U 22097AH  23308.46469324  .00001968  00000-0  14169-3 0  9994,2 53419  53.2184 357.8685 0001388  93.9480 266.1671 15.08851788 69366,6917.844,95.437,540.67,538.749,0.0
53419.0,STARLINK-4476,PAYLOAD,2023-11-04 20:41:28,15.08847434,0.0001473,53.2195,356.0818,83.4715,276.6445,-2.3317e-05,-6.59e-06,0.0,0 STARLINK-4476,1 53419U 22097AH  23308.86213798 -.00000659  00000-0 -23317-4 0  9994,2 53419  53.2195 356.0818 0001473  83.4715 276.6445 15.08847434 68960,6917.858,95.437,540.742,538.704,0.0
53419.0,STARLINK-4476,PAYLOAD,2023-11-05 09:24:33,15.08849257,0.0001573,53.2167,353.7042,83.328,276.7891,0.00017476,2.495e-05,0.0,0 STARLINK-4476,1 53419U 22097AH  23309.39205783  .00002495  00000-0  17476-3 0  9994,2 53419  53.2167 353.7042 0001573  83.3280 276.7891 15.08849257 69501,6917.852,95.437,540.805,538.629,0.0
53419.0,STARLINK-4476,PAYLOAD,2023-11-05 20:32:15,15.08853567,0.0001623,53.2169,351.6235,83.0532,277.0645,0.00020602,2.993e-05,0.0,0 STARLINK-4476,1 53419U 22097AH  23309.85573491  .00002993  00000-0  20602-3 0  9997,2 53419  53.2169 351.6235 0001623  83.0532 277.0645 15.08853567 69574,6917.839,95.437,540.827,538.581,0.0
53419.0,STARLINK-4476,PAYLOAD,2023-11-06 02:53:48,15.08851414,0.0001642,53.218,350.4333,88.4581,271.6599,0.00024279,3.579e-05,0.0,0 STARLINK-4476,1 53419U 22097AH  23310.12069513  .00003579  00000-0  24279-3 0  9999,2 53419  53.2180 350.4333 0001642  88.4581 271.6599 15.08851414 69158,6917.846,95.437,540.846,538.575,0.0
53419.0,STARLINK-4476,PAYLOAD,2023-11-06 09:15:19,15.08867828,0.0001511,53.2178,349.2431,91.0441,269.0724,0.0004606,7.056e-05,0.0,0 STARLINK-4476,1 53419U 22097AH  23310.38564391  .00007056  00000-0  46060-3 0  9997,2 53419  53.2178 349.2431 0001511  91.0441 269.0724 15.08867828 69191,6917.795,95.436,540.706,538.615,0.0
53419.0,STARLINK-4476,PAYLOAD,2023-11-07 09:06:10,15.08808899,0.0001225,53.2167,344.7843,94.1442,265.969,-0.00034612,-5.787e-05,0.0,0 STARLINK-4476,1 53419U 22097AH  23311.37928250 -.00005787  00000-0 -34612-3 0  9996,2 53419  53.2167 344.7843 0001225  94.1442 265.9690 15.08808899 69340,6917.975,95.44,540.688,538.993,0.0
53419.0,STARLINK-4476,PAYLOAD,2023-11-07 13:52:19,15.0881193,0.0001261,53.2173,343.891,107.1342,252.9788,-0.00023686,-4.053e-05,0.0,0 STARLINK-4476,1 53419U 22097AH  23311.57800403 -.00004053  00000-0 -23686-3 0  9991,2 53419  53.2173 343.8910 0001261 107.1342 252.9788 15.08811930 69834,6917.966,95.439,540.704,538.959,0.0
53419.0,STARLINK-4476,PAYLOAD,2023-11-08 02:35:23,15.08839765,0.0001831,53.2179,341.5074,123.0278,237.0891,6.3469e-05,7.22e-06,0.0,0 STARLINK-4476,1 53419U 22097AH  23312.10791583  .00000722  00000-0  63469-4 0  9990,2 53419  53.2179 341.5074 0001831 123.0278 237.0891 15.08839765 69457,6917.881,95.438,541.013,538.479,0.0
53419.0,STARLINK-4476,PAYLOAD,2023-11-08 07:21:33,15.08846577,0.0001433,53.2166,340.6178,105.8006,254.3145,0.00053871,8.298e-05,0.0,0 STARLINK-4476,1 53419U 22097AH  23312.30663780  .00008298  00000-0  53871-3 0  9990,2 53419  53.2166 340.6178 0001433 105.8006 254.3145 15.08846577 69940,6917.86,95.437,540.717,538.734,0.0
53419.0,STARLINK-4476,PAYLOAD,2023-11-08 18:29:15,15.08843268,0.0001517,53.2175,338.5422,117.9704,242.1442,0.00084095,0.00013122,0.0,0 STARLINK-4476,1 53419U 22097AH  23312.77032061  .00013122  00000-0  84095-3 0  9997,2 53419  53.2175 338.5422 0001517 117.9704 242.1442 15.08843268 70019,6917.87,95.437,540.785,538.686,0.0
53419.0,STARLINK-4476,PAYLOAD,2023-11-09 07:12:20,15.08856942,0.0001296,53.2174,336.1641,116.5492,243.5633,0.00050426,7.75e-05,0.0,0 STARLINK-4476,1 53419U 22097AH  23313.30023317  .00007750  00000-0  50426-3 0  9992,2 53419  53.2174 336.1641 0001296 116.5492 243.5633 15.08856942 69634,6917.829,95.436,540.59,538.797,0.0
53419.0,STARLINK-4476,PAYLOAD,2023-11-09 18:20:01,15.08857886,0.0001243,53.218,334.08,89.4945,270.619,0.00023351,3.432e-05,0.0,0 STARLINK-4476,1 53419U 22097AH  23313.76390759  .00003432  00000-0  23351-3 0  9999,2 53419  53.2180 334.0800 0001243  89.4945 270.6190 15.08857886 70165,6917.826,95.436,540.551,538.831,0.0
53419.0,STARLINK-4476,PAYLOAD,2023-11-09 23:06:12,15.08827955,0.000106,53.218,333.1811,98.4917,261.6196,-0.00022201,-3.818e-05,0.0,0 STARLINK-4476,1 53419U 22097AH  23313.96263893 -.00003818  00000-0 -22201-3 0  9992,2 53419  53.2180 333.1811 0001060  98.4917 261.6196 15.08827955 69734,6917.917,95.438,540.516,539.049,0.0
53419.0,STARLINK-4476,PAYLOAD,2023-11-10 08:38:29,15.08848538,0.0001308,53.2163,331.4047,97.3508,262.7633,-0.00010166,-1.906e-05,0.0,0 STARLINK-4476,1 53419U 22097AH  23314.36006660 -.00001906  00000-0 -10166-3 0  9997,2 53419  53.2163 331.4047 0001308  97.3508 262.7633 15.08848538 69790,6917.854,95.437,540.624,538.814,0.0
53419.0,STARLINK-4476,PAYLOAD,2023-11-10 18:10:48,15.08847941,0.0001419,53.2173,329.6198,89.469,270.6465,-5.5345e-06,-3.76e-06,0.0,0 STARLINK-4476,1 53419U 22097AH  23314.75750656 -.00000376  00000-0 -55345-5 0  9991,2 53419  53.2173 329.6198 0001419  89.4690 270.6465 15.08847941 70312,6917.856,95.437,540.703,538.739,0.0
53419.0,STARLINK-4476,PAYLOAD,2023-11-10 22:56:58,15.08835024,0.0001373,53.2182,328.727,94.0818,266.0331,-0.00023292,-3.992e-05,0.0,0 STARLINK-4476,1 53419U 22097AH  23314.95623016 -.00003992  00000-0 -23292-3 0  9993,2 53419  53.2182 328.7270 0001373  94.0818 266.0331 15.08835024 69886,6917.896,95.438,540.71,538.811,0.0
